SL-8 R/B                
1 15483U 85006B   26169.75480457  .00000157  00000+0  60714-4 0  9998
2 15483  74.0460  75.1795 0018899 322.0649  97.8274 14.37835597168553
SL-12 R/B(2)            
1 15772U 85042D   26169.94255729  .00000027  00000+0  33688-4 0  9998
2 15772  71.1076 233.8078 0036415 325.0956 207.4746 14.22006280128787
SL-14 R/B               
1 15945U 85069B   26169.78471236  .00000359  00000+0  37698-4 0  9997
2 15945  82.5272 289.8633 0017906 213.5666 146.4418 14.86516596187851
SL-16 R/B               
1 16182U 85097B   26169.75944269 -.00000009  00000+0  19699-4 0  9994
2 16182  71.0033 287.7676 0005386 107.9095 359.0728 14.16610073101544
SL-14 R/B               
1 16496U 86006B   26169.93575855  .00000436  00000+0  43677-4 0  9990
2 16496  82.5261 164.4677 0074870 297.5736  61.7889 14.86947078164253
COSMOS 1743             
1 16719U 86034A   26169.42393656  .00037795  00000+0  35406-3 0  9998
2 16719  82.5283 327.4165 0003996 265.3192  94.7612 15.67035980195982
SL-14 R/B               
1 16792U 86046B   26169.90402039  .00000317  00000+0  33675-4 0  9998
2 16792  82.4818 344.5529 0021632 252.3624 107.5230 14.85671991141430
SL-14 R/B               
1 16882U 86055B   26169.69493811  .00000303  00000+0  32015-4 0  9994
2 16882  82.5203  31.7154 0018917   2.7645  62.4191 14.85724007134366
AJISAI (EGS)            
1 16908U 86061A   26169.97736497 -.00000106  00000+0 -63051-4 0  9998
2 16908  50.0068 141.8898 0011205 185.1320 221.1684 12.44516793480618
SL-14 R/B               
1 17567U 87024B   26169.96798453  .00000281  00000+0  29179-4 0  9994
2 17567  82.5280 357.5766 0016748 286.8190  73.1189 14.86214089103176
COSMOS 1833             
1 17589U 87027A   26169.94882932  .00000330  00000+0  20196-3 0  9999
2 17589  70.9183 113.1652 0022852  52.1856 308.1329 14.13051389 24620
SL-16 R/B               
1 17590U 87027B   26169.91014005 -.00000169  00000+0 -59791-4 0  9992
2 17590  71.0033  63.1982 0006575 310.2298  49.8249 14.17171372 29680
SL-14 R/B               
1 17912U 87038B   26169.81295168  .00000253  00000+0  26505-4 0  9991
2 17912  82.5007 201.5410 0019043 185.7566 174.3435 14.85445925 94245
COSMOS 1844             
1 17973U 87041A   26169.73353908 -.00000135  00000+0 -44913-4 0  9994
2 17973  70.8966 181.0453 0032816 233.3190 126.4915 14.14567575 17874
SL-14 R/B               
1 18153U 87055B   26169.70479451  .00000315  00000+0  33363-4 0  9994
2 18153  82.4995 253.7985 0021596  42.9023 317.3873 14.85711972 84930
COSMOS 1867             
1 18187U 87060A   26169.87974996 -.00000053  00000+0  17877-4 0  9991
2 18187  65.0115  23.3185 0016563 282.1387  77.7841 14.31515871 34422
SL-14 R/B               
1 18749U 88001B   26169.90896794  .00000312  00000+0  33277-4 0  9993
2 18749  82.5133 100.1539 0016437 263.3057  96.6289 14.85610588 57052
COSMOS 1933             
1 18958U 88020A   26169.94824392  .00003149  00000+0  15028-3 0  9999
2 18958  82.5123 150.6913 0003763 179.3391 180.7849 15.18723161 65598
SL-3 R/B                
1 19046U 88032B   26169.88799590  .00003108  00000+0  14301-3 0  9993
2 19046  97.5257 152.9270 0023918 238.6714 121.2180 15.20850091 67488
SL-16 R/B               
1 19120U 88039B   26169.88241294  .00000094  00000+0  66977-4 0  9994
2 19120  71.0135 214.5737 0022149 190.6422 169.4238 14.19629829972746
COSMOS 1953             
1 19210U 88050A   26169.71920113  .00005879  00000+0  20096-3 0  9990
2 19210  82.5074  56.4896 0012233 121.6246 238.6190 15.29996184 53227
SL-8 R/B                
1 19257U 88053B   26169.76038289  .00000143  00000+0  54763-4 0  9991
2 19257  74.0482 286.1573 0019166  80.9098  66.9107 14.38967939991131
COSMOS 1975             
1 19573U 88093A   26169.85552137  .00005745  00000+0  20040-3 0  9992
2 19573  82.5188  16.0233 0011482 165.8726 194.2837 15.29342449 34863
SL-14 R/B               
1 19574U 88093B   26169.76588920  .00000353  00000+0  37597-4 0  9998
2 19574  82.5313 307.1624 0022034  65.5797  57.1790 14.85742897 16026
SL-16 R/B               
1 19650U 88102B   26169.77111082 -.00000075  00000+0 -13465-4 0  9997
2 19650  71.0000 298.8059 0015693 223.1389 136.8506 14.16164018941201
INTERCOSMOS 24          
1 20261U 89080A   26169.92264262  .00000700  00000+0  19742-3 0  9995
2 20261  82.6064  38.5160 1188352  57.8827 313.2073 12.59664414679549
SL-14 R/B               
1 20262U 89080C   26169.92224111  .00000222  00000+0  66549-4 0  9992
2 20262  82.5934 108.1931 1228677 313.4307  37.0664 12.50571574672808
DELTA 1 R/B             
1 20323U 89089B   26169.80566295  .00000216  00000+0  62017-4 0  9997
2 20323  97.0636   1.1049 0069387 161.8951 198.4742 14.50732136910391
ARIANE 40 R/B           
1 20443U 90005H   26169.92087700  .00000180  00000+0  70522-4 0  9992
2 20443  98.2958 227.4831 0008851 258.4066 101.6129 14.39928183907370
DELTA 2 R/B(1)          
1 20453U 90008B   26169.84486419  .00063437  00000+0  46569-3 0  9994
2 20453  35.5985 224.5676 0064889 130.2886 230.3549 15.69043930941961
