OBJECT_NAME,OBJECT_ID,EPOCH,MEAN_MOTION,ECCENTRICITY,INCLINATION,RA_OF_ASC_NODE,ARG_OF_PERICENTER,MEAN_ANOMALY,EPHEMERIS_TYPE,CLASSIFICATION_TYPE,NORAD_CAT_ID,ELEMENT_SET_NO,REV_AT_EPOCH,BSTAR,MEAN_MOTION_DOT,MEAN_MOTION_DDOT
SL-8 R/B,1985-006B,2026-06-18T18:06:55.114848,14.37835597,.0018899,74.0460,75.1795,322.0649,97.8274,0,U,15483,999,16855,.60714266E-4,.157E-5,0
SL-12 R/B(2),1985-042D,2026-06-18T22:37:16.949856,14.22006280,.00364151,71.1076,233.8078,325.0956,207.4746,0,U,15772,999,12878,.33688005E-4,.27E-6,0
SL-14 R/B,1985-069B,2026-06-18T18:49:59.147904,14.86516596,.00179061,82.5272,289.8633,213.5666,146.4418,0,U,15945,999,18785,.37697947E-4,.359E-5,0
SL-16 R/B,1985-097B,2026-06-18T18:13:35.848416,14.16610073,.00053865,71.0033,287.7676,107.9095,359.0728,0,U,16182,999,10154,.19699319E-4,-.9E-7,0
SL-14 R/B,1986-006B,2026-06-18T22:27:29.538720,14.86947078,.00748701,82.5261,164.4677,297.5736,61.7889,0,U,16496,999,16425,.43676639E-4,.436E-5,0
COSMOS 1743,1986-034A,2026-06-18T10:10:28.118784,15.67035980,.0003996,82.5283,327.4165,265.3192,94.7612,0,U,16719,999,19598,.35406E-3,.37795E-3,0
SL-14 R/B,1986-046B,2026-06-18T21:41:47.361696,14.85671991,.00216325,82.4818,344.5529,252.3624,107.5230,0,U,16792,999,14143,.33675328E-4,.317E-5,0
SL-14 R/B,1986-055B,2026-06-18T16:40:42.652704,14.85724007,.00189175,82.5203,31.7154,2.7645,62.4191,0,U,16882,999,13436,.32014867E-4,.303E-5,0
AJISAI (EGS),1986-061A,2026-06-18T23:27:24.333408,12.44516793,.00112058,50.0068,141.8898,185.1320,221.1684,0,U,16908,999,48061,-.6305095E-4,-.106E-5,0
SL-14 R/B,1987-024B,2026-06-18T23:13:53.863392,14.86214089,.00167484,82.5280,357.5766,286.8190,73.1189,0,U,17567,999,10317,.29179232E-4,.281E-5,0
COSMOS 1833,1987-027A,2026-06-18T22:46:18.853248,14.13051389,.00228523,70.9183,113.1652,52.1856,308.1329,0,U,17589,999,2462,.20196002E-3,.33E-5,0
SL-16 R/B,1987-027B,2026-06-18T21:50:36.100320,14.17171372,.00065756,71.0033,63.1982,310.2298,49.8249,0,U,17590,999,2968,-.59790671E-4,-.169E-5,0
SL-14 R/B,1987-038B,2026-06-18T19:30:39.025152,14.85445925,.00190434,82.5007,201.5410,185.7566,174.3435,0,U,17912,999,9424,.26505102E-4,.253E-5,0
COSMOS 1844,1987-041A,2026-06-18T17:36:17.776512,14.14567575,.00328163,70.8966,181.0453,233.3190,126.4915,0,U,17973,999,1787,-.44912745E-4,-.135E-5,0
SL-14 R/B,1987-055B,2026-06-18T16:54:54.245664,14.85711972,.00215966,82.4995,253.7985,42.9023,317.3873,0,U,18153,999,8493,.33363274E-4,.315E-5,0
COSMOS 1867,1987-060A,2026-06-18T21:06:50.396544,14.31515871,.00165634,65.0115,23.3185,282.1387,77.7841,0,U,18187,999,3442,.17877437E-4,-.53E-6,0
SL-14 R/B,1988-001B,2026-06-18T21:48:54.830016,14.85610588,.00164377,82.5133,100.1539,263.3057,96.6289,0,U,18749,999,5705,.3327714E-4,.312E-5,0
COSMOS 1933,1988-020A,2026-06-18T22:45:28.274688,15.18723161,.00037635,82.5123,150.6913,179.3391,180.7849,0,U,18958,999,6559,.15028357E-3,.3149E-4,0
SL-3 R/B,1988-032B,2026-06-18T21:18:42.845760,15.20850091,.00239186,97.5257,152.9270,238.6714,121.2180,0,U,19046,999,6748,.14300726E-3,.3108E-4,0
SL-16 R/B,1988-039B,2026-06-18T21:10:40.478016,14.19629829,.00221495,71.0135,214.5737,190.6422,169.4238,0,U,19120,999,97274,.66976788E-4,.94E-6,0
COSMOS 1953,1988-050A,2026-06-18T17:15:38.977632,15.29996184,.00122332,82.5074,56.4896,121.6246,238.6190,0,U,19210,999,5322,.20096221E-3,.5879E-4,0
SL-8 R/B,1988-053B,2026-06-18T18:14:57.081696,14.38967939,.00191667,74.0482,286.1573,80.9098,66.9107,0,U,19257,999,99113,.54763332E-4,.143E-5,0
COSMOS 1975,1988-093A,2026-06-18T20:31:57.046368,15.29342449,.00114826,82.5188,16.0233,165.8726,194.2837,0,U,19573,999,3486,.20040179E-3,.5745E-4,0
SL-14 R/B,1988-093B,2026-06-18T18:22:52.826880,14.85742897,.00220344,82.5313,307.1624,65.5797,57.1790,0,U,19574,999,1602,.37596695E-4,.353E-5,0
SL-16 R/B,1988-102B,2026-06-18T18:30:23.974848,14.16164018,.00156935,71.0000,298.8059,223.1389,136.8506,0,U,19650,999,94120,-.13465427E-4,-.75E-6,0
INTERCOSMOS 24,1989-080A,2026-06-18T22:08:36.322368,12.59664414,.11883526,82.6064,38.5160,57.8827,313.2073,0,U,20261,999,67954,.1974178E-3,.7E-5,0
SL-14 R/B,1989-080C,2026-06-18T22:08:01.631904,12.50571574,.12286772,82.5934,108.1931,313.4307,37.0664,0,U,20262,999,67280,.66548628E-4,.222E-5,0
DELTA 1 R/B,1989-089B,2026-06-18T19:20:09.278880,14.50732136,.00693874,97.0636,1.1049,161.8951,198.4742,0,U,20323,999,91039,.62017135E-4,.216E-5,0
ARIANE 40 R/B,1990-005H,2026-06-18T22:06:03.772800,14.39928183,.00088519,98.2958,227.4831,258.4066,101.6129,0,U,20443,999,90737,.70521505E-4,.18E-5,0
DELTA 2 R/B(1),1990-008B,2026-06-18T20:16:36.266016,15.69043930,.00648898,35.5985,224.5676,130.2886,230.3549,0,U,20453,999,94196,.46569204E-3,.63437E-3,0
